LAOSAT 1                
1 41034U 15067A   26192.80424918 -.00000339  00000+0  00000+0 0  9991
2 41034   0.0381 157.7055 0002181 260.9281 289.1205  1.00270101 39108
TELSTAR 12V             
1 41036U 15068A   26192.84708384  .00000000  00000+0  00000+0 0  9994
2 41036   0.0243  34.5481 0002051  74.1687 110.9911  1.00270214 38876
ELEKTRO-L 2             
1 41105U 15074A   26192.41948436 -.00000118  00000+0  00000+0 0  9996
2 41105   6.7510  70.2237 0000888 218.2194 137.3884  1.00272476 38749
COSMOS 2513             
1 41121U 15075A   26193.07987487 -.00000135  00000+0  00000+0 0  9996
2 41121   0.0640 102.9787 0002529 343.1244 312.8699  1.00271190 38790
EXPRESS-AMU1            
1 41191U 15082A   26192.92961583  .00000159  00000+0  00000+0 0  9998
2 41191   0.0128  66.6818 0002310  54.3046 179.5851  1.00271875 38516
GAOFEN-4                
1 41194U 15083A   26192.92057102 -.00000331  00000+0  00000+0 0  9998
2 41194   0.4175  83.8486 0004481 121.3118 161.7458  1.00268546 38778
BELINTERSAT-1           
1 41238U 16001A   26192.90738978  .00000111  00000+0  00000+0 0  9998
2 41238   0.0640 252.6646 0001941 175.5517 239.7320  1.00271833 38481
IRNSS-1E                
1 41241U 16003A   26191.58253116 -.00000316  00000+0  00000+0 0  9991
2 41241  33.2836  59.4106 0019285 178.7449  11.7354  1.00267797 38314
EUTELSAT 9B             
1 41310U 16005A   26192.85185053  .00000065  00000+0  00000+0 0  9995
2 41310   0.0283  52.6989 0001044  44.2948 148.4168  1.00269526 38366
SES-9                   
1 41380U 16013A   26192.47406122 -.00000339  00000+0  00000+0 0  9997
2 41380   0.0146 332.5333 0002116 133.1450 102.6698  1.00270691 37680
EUTELSAT 65 WEST A      
1 41382U 16014A   26192.96035162 -.00000273  00000+0  00000+0 0  9993
2 41382   0.0656 316.7009 0002023 156.7289  96.9739  1.00270364 37778
IRNSS-1F                
1 41384U 16015A   26191.92980912  .00000161  00000+0  00000+0 0  9998
2 41384   5.4067  96.2421 0017397 183.5118  16.4345  1.00279141 37909
BEIDOU-2 IGSO-6         
1 41434U 16021A   26177.11016981 -.00000145  00000+0  00000+0 0  9995
2 41434  60.2385  37.9495 0057558 231.0163 137.2672  1.00258926 37578
IRNSS-1G                
1 41469U 16027A   26192.66190655 -.00000334  00000+0  00000+0 0  9997
2 41469   5.2542  96.9079 0005969   9.8373 190.7801  1.00272899 37423
JCSAT-2B                
1 41471U 16028A   26192.73802935 -.00000161  00000+0  00000+0 0  9998
2 41471   0.0186  32.4599 0000756  77.7939 239.0817  1.00271655 37373
THAICOM 8               
1 41552U 16031A   26192.89426903 -.00000117  00000+0  00000+0 0  9997
2 41552   0.0691  45.3765 0002980  28.0233 256.8216  1.00270579 36967
INTELSAT 31 (IS-31)     
1 41581U 16035A   26192.83128931 -.00000146  00000+0  00000+0 0  9999
2 41581   0.0182 284.5667 0001134 357.7820 211.5987  1.00270831 36937
BEIDOU-2 G7             
1 41586U 16037A   26192.80069582 -.00000351  00000+0  00000+0 0  9997
2 41586   1.7772  69.4798 0006028 359.4436 259.5394  1.00275483  7131
ABS-2A (MONGOLSAT-1)    
1 41588U 16038A   26192.43716446 -.00000077  00000+0  00000+0 0  9992
2 41588   0.0126  16.5016 0001210  41.0122 103.9139  1.00270427 36952
EUTELSAT 117 WEST B     
1 41589U 16038B   26192.68435332 -.00000007  00000+0  00000+0 0  9995
2 41589   0.0108 140.1475 0000325 345.6914 293.1306  1.00271300 36908
BRISAT                  
1 41591U 16039A   26192.80858253 -.00000192  00000+0  00000+0 0  9999
2 41591   0.0146 346.9850 0001841 122.8950 261.4192  1.00271027 36856
ECHOSTAR 18             
1 41592U 16039B   26192.83796266 -.00000278  00000+0  00000+0 0  9993
2 41592   0.0039  99.1812 0001347  22.7603  48.0969  1.00269970 36874
MUOS-5                  
1 41622U 16041A   26192.68634667 -.00000115  00000+0  00000+0 0  9999
2 41622   2.1529 302.1253 0199404 260.6410 228.7630  1.00271781 37339
TIANTONG-1 1            
1 41725U 16048A   26192.91388684 -.00000317  00000+0  00000+0 0  9995
2 41725   3.8953  43.5960 0004954  57.3465 259.2695  1.00270283 36514
JCSAT-16                
1 41729U 16050A   26192.59343730 -.00000246  00000+0  00000+0 0  9990
2 41729   0.0189  36.6801 0001025 103.9126 146.4872  1.00271358 36319
USA 270                 
1 41744U 16052A   26192.47641677 -.00000349  00000+0  00000+0 0  9991
2 41744   4.2578  76.8776 0009314 101.3149  48.8838  1.00269374 28376
USA 271                 
1 41745U 16052B   26188.73473646 -.00000278  00000+0  00000+0 0  9996
2 41745   4.2217  76.9947 0010955 166.6184  44.5685  1.00271212 28124
INTELSAT 36 (IS-36)     
1 41747U 16053A   26192.51016895 -.00000018  00000+0  00000+0 0  9991
2 41747   0.0105 355.6291 0002513 345.6309 200.3095  1.00269566 36208
INSAT-3DR               
1 41752U 16054A   26192.89029159 -.00000073  00000+0  00000+0 0  9997
2 41752   0.0611  88.7325 0010640 181.7646  53.8059  1.00271971 36069
GSAT-18                 
1 41793U 16060A   26192.89247230 -.00000073  00000+0  00000+0 0  9991
2 41793   0.0267  89.2130 0005255 348.6329 247.2037  1.00271080 35772
SKY MUSTER 2 (NBN1B)    
1 41794U 16060B   26192.87877152 -.00000240  00000+0  00000+0 0  9998
2 41794   0.0153 351.4041 0001350 118.7033 280.8198  1.00270891 35761
HIMAWARI-9              
1 41836U 16064A   26192.87799152  .00000000  00000+0  00000+0 0  9995
2 41836   0.0289  55.5033 0002255 123.3481 207.7688  1.00269999 35450
